OBJECT_NAME,OBJECT_ID,EPOCH,MEAN_MOTION,ECCENTRICITY,INCLINATION,RA_OF_ASC_NODE,ARG_OF_PERICENTER,MEAN_ANOMALY,EPHEMERIS_TYPE,CLASSIFICATION_TYPE,NORAD_CAT_ID,ELEMENT_SET_NO,REV_AT_EPOCH,BSTAR,MEAN_MOTION_DOT,MEAN_MOTION_DDOT
DUBAISAT-1,2009-041B,2026-07-05T22:42:27.118944,14.75156667,.00106485,98.0075,320.0008,18.3145,341.8446,0,U,35682,999,90786,.15834202E-3,.1019E-4,0
OCEANSAT-2,2009-051A,2026-07-06T06:52:17.330880,13.99657946,.0016739,98.2318,172.2311,179.3834,180.7356,0,U,35931,999,88200,-.10745676E-3,-.195E-5,0
WORLDVIEW-2 (WV-2),2009-055A,2026-07-06T07:11:54.049632,14.37905305,.00048969,98.4760,260.4888,151.9016,208.2436,0,U,35946,999,87839,.58474782E-4,.133E-5,0
SMOS,2009-059A,2026-07-06T02:12:52.115904,14.39783258,.00012999,98.4427,14.1503,87.1604,272.9733,0,U,36036,999,87617,.10370601E-3,.282E-5,0
YAOGAN-7,2009-069A,2026-07-06T05:56:32.482752,14.78029861,.00241324,98.0047,72.9949,341.1606,18.8709,0,U,36110,999,89244,.79954948E-4,.527E-5,0
TANDEM-X,2010-030A,2026-07-05T12:04:28.704000,15.19152794,.0001793,97.4456,193.9495,97.5745,262.5693,0,U,36605,999,88942,.26699E-4,.494E-5,0
CARTOSAT-2B,2010-035A,2026-07-06T06:53:51.900864,14.78609660,.00122956,97.9937,237.7146,125.0265,235.2102,0,U,36795,999,86267,.11055134E-3,.758E-5,0
YAOGAN-10,2010-038A,2026-07-06T07:02:06.631584,14.85411018,.00015832,97.8969,210.5449,86.5130,42.1254,0,U,36834,999,86004,.26903003E-3,.2264E-4,0
COSMO-SKYMED 4,2010-060A,2026-07-06T06:42:00.745056,14.82163403,.00015106,97.8893,10.6019,86.4593,273.6793,0,U,37216,999,84739,.12482778E-3,.942E-5,0
RESOURCESAT-2,2011-015A,2026-07-06T05:35:43.830816,14.21604714,.00110568,98.7635,254.5427,196.7035,163.3779,0,U,37387,999,78888,.66241815E-4,.101E-5,0
HAIYANG-2A,2011-043A,2026-07-06T06:16:08.263200,13.73781740,.00041357,99.3398,189.5061,54.5981,305.5553,0,U,37781,999,74927,.29048443E-3,.228E-5,0
RASAT,2011-044D,2026-07-06T06:20:52.760256,14.68187600,.00215973,98.0578,278.3707,129.4862,314.7399,0,U,37791,999,79598,.14988843E-3,.817E-5,0
SRMSAT,2011-058D,2026-07-05T14:40:37.340256,14.11579636,.0011863,19.9728,307.9551,46.8223,73.4725,0,U,37841,999,76042,.75655E-4,.404E-5,0
PLEIADES 1A,2011-076F,2026-07-06T08:04:53.308704,14.58544442,.00017553,98.1967,262.1822,85.3321,349.3614,0,U,38012,999,77478,.12838942E-3,.551E-5,0
ZIYUAN 1-02C (ZY 1-02C),2011-079A,2026-07-06T06:46:02.672832,14.38231227,.00052081,98.4059,254.1912,246.3796,201.0843,0,U,38038,999,76195,.18767832E-3,.527E-5,0
ARIRANG-3 (KOMPSAT-3),2012-025B,2026-07-06T06:16:41.894400,14.62223536,.00066525,98.1180,144.3933,61.8538,298.3335,0,U,38338,999,75413,.93226658E-4,.423E-5,0
EXACTVIEW-1 (ADS-1B),2012-039C,2026-07-06T04:46:34.413888,14.24990372,.00118887,98.9797,305.0205,115.0164,245.2251,0,U,38709,999,72541,.75152538E-4,.13E-5,0
SPOT 6,2012-047A,2026-07-06T06:27:42.646176,14.58535872,.00011807,98.2107,254.3544,79.3379,280.7953,0,U,38755,999,73583,.12737756E-3,.546E-5,0
PLEIADES 1B,2012-068A,2026-07-06T06:54:30.995136,14.58573425,.00016559,98.1938,262.0766,83.0411,277.0976,0,U,39019,999,72363,.99777013E-4,.418E-5,0
GOKTURK 2,2012-073A,2026-07-06T06:31:19.970688,14.75562792,.00009656,97.6813,23.7454,68.4821,291.6492,0,U,39030,999,72732,.79366009E-4,.494E-5,0
LANDSAT 8,2013-008A,2026-07-06T06:03:22.591584,14.57107773,.00013508,98.2294,257.1605,94.1830,265.9523,0,U,39084,999,70067,.84207898E-4,.334E-5,0
SARAL,2013-009A,2026-07-06T05:51:41.929920,14.32894183,.00011425,98.5554,13.5704,193.1196,166.9959,0,U,39086,999,69833,.46971522E-4,.85E-6,0
GAOFEN-1,2013-018A,2026-07-06T07:24:55.598976,14.76514729,.00163045,97.9084,258.9884,200.1331,159.9237,0,U,39150,999,71106,.20175487E-3,.1358E-4,0
VNREDSAT 1,2013-021B,2026-07-06T06:47:46.547232,14.64879102,.00016717,97.9064,239.9661,83.2786,276.8608,0,U,39160,999,70308,.17836309E-3,.908E-5,0
ARIRANG-5 (KOMPSAT-5),2013-042A,2026-07-06T07:41:27.362112,15.04558695,.00054052,97.6214,13.7509,76.7950,283.3879,0,U,39227,999,70673,.15502884E-3,.2113E-4,0
SKYSAT-A,2013-066C,2026-07-06T02:32:16.578816,15.13081891,.00198357,97.3798,235.9003,246.7138,113.2005,0,U,39418,999,69134,.18355603E-3,.3198E-4,0
DUBAISAT-2,2013-066D,2026-07-06T06:50:26.892672,15.10334805,.00101058,97.4581,176.9310,338.0423,22.0372,0,U,39419,999,68927,.27553402E-3,.446E-4,0
GPM-CORE,2014-009C,2026-07-06T07:22:57.897984,15.44975011,.00111488,64.9704,244.0724,259.1713,100.8173,0,U,39574,999,70076,.16734018E-3,.7693E-4,0
SENTINEL-1A,2014-016A,2026-07-06T07:02:11.990976,14.59200439,.00013826,98.1781,194.5471,85.6642,274.4716,0,U,39634,999,65280,.46631919E-4,.174E-5,0
KAZEOSAT 1,2014-024A,2026-07-06T07:27:20.777760,14.42035575,.00013045,98.3195,259.2824,82.2295,277.9043,0,U,39731,999,64131,.10206378E-3,.292E-5,0
