DUBAISAT-1              
1 35682U 09041B   26186.94614721  .00001019  00000+0  15834-3 0  9999
2 35682  98.0075 320.0008 0010648  18.3145 341.8446 14.75156667907867
OCEANSAT-2              
1 35931U 09051A   26187.28631170 -.00000195  00000+0 -10746-3 0  9995
2 35931  98.2318 172.2311 0016739 179.3834 180.7356 13.99657946882009
WORLDVIEW-2 (WV-2)      
1 35946U 09055A   26187.29993113  .00000133  00000+0  58475-4 0  9996
2 35946  98.4760 260.4888 0004896 151.9016 208.2436 14.37905305878396
SMOS                    
1 36036U 09059A   26187.09226986  .00000282  00000+0  10371-3 0  9993
2 36036  98.4427  14.1503 0001299  87.1604 272.9733 14.39783258876177
YAOGAN-7                
1 36110U 09069A   26187.24759818  .00000527  00000+0  79955-4 0  9995
2 36110  98.0047  72.9949 0024132 341.1606  18.8709 14.78029861892440
TANDEM-X                
1 36605U 10030A   26186.50311000  .00000494  00000+0  26699-4 0  9999
2 36605  97.4456 193.9495 0001793  97.5745 262.5693 15.19152794889422
CARTOSAT-2B             
1 36795U 10035A   26187.28740626  .00000758  00000+0  11055-3 0  9992
2 36795  97.9937 237.7146 0012295 125.0265 235.2102 14.78609660862677
YAOGAN-10               
1 36834U 10038A   26187.29313231  .00002264  00000+0  26903-3 0  9990
2 36834  97.8969 210.5449 0001583  86.5130  42.1254 14.85411018860048
COSMO-SKYMED 4          
1 37216U 10060A   26187.27917529  .00000942  00000+0  12483-3 0  9997
2 37216  97.8893  10.6019 0001510  86.4593 273.6793 14.82163403847394
RESOURCESAT-2           
1 37387U 11015A   26187.23314619  .00000101  00000+0  66242-4 0  9994
2 37387  98.7635 254.5427 0011056 196.7035 163.3779 14.21604714788886
HAIYANG-2A              
1 37781U 11043A   26187.26120675  .00000228  00000+0  29048-3 0  9995
2 37781  99.3398 189.5061 0004135  54.5981 305.5553 13.73781740749270
RASAT                   
1 37791U 11044D   26187.26449954  .00000817  00000+0  14989-3 0  9993
2 37791  98.0578 278.3707 0021597 129.4862 314.7399 14.68187600795981
SRMSAT                  
1 37841U 11058D   26186.61154329  .00000404  00000+0  75655-4 0  9991
2 37841  19.9728 307.9551 0011863  46.8223  73.4725 14.11579636760425
PLEIADES 1A             
1 38012U 11076F   26187.33672811  .00000551  00000+0  12839-3 0  9990
2 38012  98.1967 262.1822 0001755  85.3321 349.3614 14.58544442774783
ZIYUAN 1-02C (ZY 1-02C) 
1 38038U 11079A   26187.28197538  .00000527  00000+0  18768-3 0  9993
2 38038  98.4059 254.1912 0005208 246.3796 201.0843 14.38231227761954
ARIRANG-3 (KOMPSAT-3)   
1 38338U 12025B   26187.26159600  .00000423  00000+0  93227-4 0  9993
2 38338  98.1180 144.3933 0006652  61.8538 298.3335 14.62223536754138
EXACTVIEW-1 (ADS-1B)    
1 38709U 12039C   26187.19900942  .00000130  00000+0  75153-4 0  9998
2 38709  98.9797 305.0205 0011888 115.0164 245.2251 14.24990372725418
SPOT 6                  
1 38755U 12047A   26187.26924359  .00000546  00000+0  12738-3 0  9994
2 38755  98.2107 254.3544 0001180  79.3379 280.7953 14.58535872735830
PLEIADES 1B             
1 39019U 12068A   26187.28785874  .00000418  00000+0  99777-4 0  9997
2 39019  98.1938 262.0766 0001655  83.0411 277.0976 14.58573425723638
GOKTURK 2               
1 39030U 12073A   26187.27175892  .00000494  00000+0  79366-4 0  9994
2 39030  97.6813  23.7454 0000965  68.4821 291.6492 14.75562792727327
LANDSAT 8               
1 39084U 13008A   26187.25234481  .00000334  00000+0  84208-4 0  9994
2 39084  98.2294 257.1605 0001350  94.1830 265.9523 14.57107773700674
SARAL                   
1 39086U 13009A   26187.24423530  .00000085  00000+0  46972-4 0  9990
2 39086  98.5554  13.5704 0001142 193.1196 166.9959 14.32894183698339
GAOFEN-1                
1 39150U 13018A   26187.30897684  .00001358  00000+0  20175-3 0  9994
2 39150  97.9084 258.9884 0016304 200.1331 159.9237 14.76514729711062
VNREDSAT 1              
1 39160U 13021B   26187.28317763  .00000908  00000+0  17836-3 0  9991
2 39160  97.9064 239.9661 0001671  83.2786 276.8608 14.64879102703088
ARIRANG-5 (KOMPSAT-5)   
1 39227U 13042A   26187.32045558  .00002113  00000+0  15503-3 0  9992
2 39227  97.6214  13.7509 0005405  76.7950 283.3879 15.04558695706738
SKYSAT-A                
1 39418U 13066C   26187.10574744  .00003198  00000+0  18356-3 0  9993
2 39418  97.3798 235.9003 0019835 246.7138 113.2005 15.13081891691341
DUBAISAT-2              
1 39419U 13066D   26187.28503348  .00004460  00000+0  27553-3 0  9997
2 39419  97.4581 176.9310 0010105 338.0423  22.0372 15.10334805689277
GPM-CORE                
1 39574U 14009C   26187.30761456  .00007693  00000+0  16734-3 0  9996
2 39574  64.9704 244.0724 0011148 259.1713 100.8173 15.44975011700763
SENTINEL-1A             
1 39634U 14016A   26187.29319434  .00000174  00000+0  46632-4 0  9992
2 39634  98.1781 194.5471 0001382  85.6642 274.4716 14.59200439652806
KAZEOSAT 1              
1 39731U 14024A   26187.31065715  .00000292  00000+0  10206-3 0  9990
2 39731  98.3195 259.2824 0001304  82.2295 277.9043 14.42035575641311
